[{"OBJECT_NAME":"STARLINK-4652","OBJECT_ID":"2022-107AN","EPOCH":"2026-03-09T16:59:14.743392","MEAN_MOTION":15.08835632,"ECCENTRICITY":0.0001273,"INCLINATION":53.2171,"RA_OF_ASC_NODE":254.2298,"ARG_OF_PERICENTER":84.7459,"MEAN_ANOMALY":275.3679,"EPHEMERIS_TYPE":0,"CLASSIFICATION_TYPE":"U","NORAD_CAT_ID":53736,"ELEMENT_SET_NO":999,"REV_AT_EPOCH":19458,"BSTAR":8.1119435e-5,"MEAN_MOTION_DOT":1.003e-5,"MEAN_MOTION_DDOT":0},{"OBJECT_NAME":"CZ-4B DEB","OBJECT_ID":"2008-053L","EPOCH":"2026-03-08T19:52:33.417984","MEAN_MOTION":15.09778257,"ECCENTRICITY":0.00077037,"INCLINATION":97.7892,"RA_OF_ASC_NODE":87.441,"ARG_OF_PERICENTER":237.5543,"MEAN_ANOMALY":122.4941,"EPHEMERIS_TYPE":0,"CLASSIFICATION_TYPE":"U","NORAD_CAT_ID":36290,"ELEMENT_SET_NO":999,"REV_AT_EPOCH":71411,"BSTAR":0.00021001,"MEAN_MOTION_DOT":3.326e-5,"MEAN_MOTION_DDOT":0}]
